norad_id,name,regime,epoch,line1,line2,inclination,eccentricity,mean_motion,raan,arg_pericenter,mean_anomaly
28082,CHINASAT 20,EGO,18237.02121277,1 28082U 03052A   18237.02121277 -.00000029 +00000-0 +00000-0 0 0001\,2 28082 004.3590 069.3588 0002259 067.6738 292.6245 00.9910869705411,4.359,0.0002259,0.99108697,69.3588,67.6738,292.6245
28082,CHINASAT 20,EGO,18238.03022950,1 28082U 03052A   18238.03022950 -.00000002 +00000-0 +00000-0 0 0001\,2 28082 004.3608 069.3520 0002215 070.6417 289.6776 00.9910838505412,4.3608,0.0002215,0.99108385,69.352,70.6417,289.6776
28082,CHINASAT 20,EGO,18238.03023075,1 28082U 03052A   18238.03023075 -.00000002 +00000-0 +00000-0 0 0001\,2 28082 004.3608 069.3523 0002225 069.9544 290.3649 00.9910841705412,4.3608,0.0002225,0.99108417,69.3523,69.9544,290.3649
28082,CHINASAT 20,EGO,18238.03023124,1 28082U 03052A   18238.03023124 -.00000002  00000-0  00000+0 0  6019\,2 28082   4.3608  69.3525 0002226  69.8659 290.4534  0.99108426 54137,4.3608,0.0002226,0.99108426,69.3525,69.8659,290.4534
28082,CHINASAT 20,EGO,18239.03923692,1 28082U 03052A   18239.03923692 +.00000022 +00000-0 +00000-0 0 0001\,2 28082 004.3626 069.3457 0002179 072.5957 287.7395 00.9910818205413,4.3626,0.0002179,0.99108182,69.3457,72.5957,287.7395
28082,CHINASAT 20,EGO,18239.03923728,1 28082U 03052A   18239.03923728 +.00000022 +00000-0 +00000-0 0 0001\,2 28082 004.3627 069.3458 0002181 072.4765 287.8588 00.9910819505413,4.3627,0.0002181,0.99108195,69.3458,72.4765,287.8588
28082,CHINASAT 20,EGO,18240.04822629,1 28082U 03052A   18240.04822629 +.00000042 +00000-0 +00000-0 0 0001\,2 28082 004.3645 069.3394 0002128 074.9810 285.3632 00.9910802605414,4.3645,0.0002128,0.99108026,69.3394,74.981,285.3632
28082,CHINASAT 20,EGO,18240.04822795,1 28082U 03052A   18240.04822795  .00000042  00000-0  00000+0 0  6028\,2 28082   4.3645  69.3401 0002156  73.4756 286.8687  0.99108091 54150,4.3645,0.0002156,0.99108091,69.3401,73.4756,286.8687
28082,CHINASAT 20,EGO,18241.05719229,1 28082U 03052A   18241.05719229 +.00000059 +00000-0 +00000-0 0 0001\,2 28082 004.3664 069.3328 0002056 077.8048 282.5402 00.9910789505415,4.3664,0.0002056,0.99107895,69.3328,77.8048,282.5402
28082,CHINASAT 20,EGO,18242.06614068,1 28082U 03052A   18242.06614068 +.00000071 +00000-0 +00000-0 0 0001\,2 28082 004.3683 069.3269 0002005 079.6728 280.6653 00.9910789305416,4.3683,0.0002005,0.99107893,69.3269,79.6728,280.6653
28082,CHINASAT 20,EGO,18242.06614204,1 28082U 03052A   18242.06614204 +.00000071 +00000-0 +00000-0 0 0001\,2 28082 004.3683 069.3271 0002018 079.1879 281.1503 00.9910794005416,4.3683,0.0002018,0.9910794,69.3271,79.1879,281.1503
28082,CHINASAT 20,EGO,18242.06614345,1 28082U 03052A   18242.06614345  .00000071  00000-0  00000+0 0  6035\,2 28082   4.3683  69.3276 0002045  78.0760 282.2625  0.99107979 54173,4.3683,0.0002045,0.99107979,69.3276,78.076,282.2625
28082,CHINASAT 20,EGO,18243.07507157,1 28082U 03052A   18243.07507157 +.00000078 +00000-0 +00000-0 0 0001\,2 28082 004.3703 069.3210 0001944 081.5842 278.7409 00.9910795005417,4.3703,0.0001944,0.9910795,69.321,81.5842,278.7409
28082,CHINASAT 20,EGO,18244.08399460,1 28082U 03052A   18244.08399460 +.00000080 +00000-0 +00000-0 0 0001\,2 28082 004.3724 069.3156 0001880 083.6228 276.6864 00.9910806905418,4.3724,0.000188,0.99108069,69.3156,83.6228,276.6864
28082,CHINASAT 20,EGO,18244.08399585,1 28082U 03052A   18244.08399585  .00000080  00000-0  00000+0 0  6068\,2 28082   4.3723  69.3159 0001917  82.2065 278.1031  0.99108138 54195,4.3723,0.0001917,0.99108138,69.3159,82.2065,278.1031
28082,CHINASAT 20,EGO,18245.09292015,1 28082U 03052A   18245.09292015 +.00000076 +00000-0 +00000-0 0 0001\,2 28082 004.3745 069.3107 0001814 084.9379 275.3566 00.9910825205419,4.3745,0.0001814,0.99108252,69.3107,84.9379,275.3566
28082,CHINASAT 20,EGO,18246.10185861,1 28082U 03052A   18246.10185861 +.00000068 +00000-0 +00000-0 0 0001\,2 28082 004.3766 069.3061 0001735 085.8138 274.4711 00.9910845905420,4.3766,0.0001735,0.99108459,69.3061,85.8138,274.4711
28082,CHINASAT 20,EGO,18246.10186044,1 28082U 03052A   18246.10186044  .00000068  00000-0  00000+0 0  6074\,2 28082   4.3765  69.3060 0001785  85.2544 275.0311  0.99108559 54217,4.3765,0.0001785,0.99108559,69.306,85.2544,275.0311
28082,CHINASAT 20,EGO,18247.11082094,1 28082U 03052A   18247.11082094 +.00000055 +00000-0 +00000-0 0 0001\,2 28082 004.3787 069.3020 0001694 085.6891 274.5949 00.9910882005421,4.3787,0.0001694,0.9910882,69.302,85.6891,274.5949
28082,CHINASAT 20,EGO,18248.11980458,1 28082U 03052A   18248.11980458  .00000038  00000-0  00000+0 0  6086\,2 28082   4.3808  69.2977 0001664  85.5579 274.7344  0.99109201 54237,4.3808,0.0001664,0.99109201,69.2977,85.5579,274.7344
28082,CHINASAT 20,EGO,18249.12880473,1 28082U 03052A   18249.12880473 +.00000018 +00000-0 +00000-0 0 0001\,2 28082 004.3830 069.2939 0001597 084.9653 275.3421 00.9910960805423,4.383,0.0001597,0.99109608,69.2939,84.9653,275.3421
28082,CHINASAT 20,EGO,18249.12880505,1 28082U 03052A   18249.12880505 +.00000018 +00000-0 +00000-0 0 0001\,2 28082 004.3831 069.2940 0001597 084.6642 275.6432 00.9910962105423,4.3831,0.0001597,0.99109621,69.294,84.6642,275.6432
28082,CHINASAT 20,EGO,18250.13780968,1 28082U 03052A   18250.13780968 -.00000004 +00000-0 +00000-0 0 0001\,2 28082 004.3852 069.2898 0001576 082.6637 277.6625 00.9911007605424,4.3852,0.0001576,0.99110076,69.2898,82.6637,277.6625
28082,CHINASAT 20,EGO,18250.13781000,1 28082U 03052A   18250.13781000 -.00000004 +00000-0 +00000-0 0 0001\,2 28082 004.3852 069.2899 0001580 082.4016 277.9247 00.9911010405424,4.3852,0.000158,0.99110104,69.2899,82.4016,277.9247
28082,CHINASAT 20,EGO,18250.13781021,1 28082U 03052A   18250.13781021 -.00000004  00000-0  00000+0 0  6114\,2 28082   4.3851  69.2896 0001581  84.1770 276.1493  0.99110064 54253,4.3851,0.0001581,0.99110064,69.2896,84.177,276.1493
28082,CHINASAT 20,EGO,18251.14680556,1 28082U 03052A   18251.14680556 -.00000028 +00000-0 +00000-0 0 0001\,2 28082 004.3873 069.2855 0001573 081.8283 278.5151 00.9911056705425,4.3873,0.0001573,0.99110567,69.2855,81.8283,278.5151
28082,CHINASAT 20,EGO,18251.14680558,1 28082U 03052A   18251.14680558 -.00000028 +00000-0 +00000-0 0 0001\,2 28082 004.3874 069.2857 0001576 080.8349 279.5086 00.9911062705425,4.3874,0.0001576,0.99110627,69.2857,80.8349,279.5086
28082,CHINASAT 20,EGO,18252.15577788,1 28082U 03052A   18252.15577788 -.00000052 +00000-0 +00000-0 0 0001\,2 28082 004.3896 069.2815 0001589 079.0878 281.2666 00.9911118705426,4.3896,0.0001589,0.99111187,69.2815,79.0878,281.2666
28082,CHINASAT 20,EGO,18252.15577800,1 28082U 03052A   18252.15577800 -.00000053  00000-0  00000+0 0  6121\,2 28082   4.3895  69.2813 0001578  80.2394 280.1150  0.99111111 54276,4.3895,0.0001578,0.99111111,69.2813,80.2394,280.115
28082,CHINASAT 20,EGO,18253.16471963,1 28082U 03052A   18253.16471963 -.00000077 +00000-0 +00000-0 0 0001\,2 28082 004.3917 069.2773 0001608 077.6795 282.6768 00.9911174105427,4.3917,0.0001608,0.99111741,69.2773,77.6795,282.6768
28082,CHINASAT 20,EGO,18254.17362833,1 28082U 03052A   18254.17362833 -.00000101  00000-0  00000+0 0  6138\,2 28082   4.3938  69.2727 0001626  76.9512 283.3975  0.99112245 54297,4.3938,0.0001626,0.99112245,69.2727,76.9512,283.3975
28082,CHINASAT 20,EGO,18254.17362846,1 28082U 03052A   18254.17362846 -.00000101 +00000-0 +00000-0 0 0001\,2 28082 004.3938 069.2728 0001635 076.3782 283.9705 00.9911231105428,4.3938,0.0001635,0.99112311,69.2728,76.3782,283.9705
28082,CHINASAT 20,EGO,18255.18251052,1 28082U 03052A   18255.18251052 -.00000125 +00000-0 +00000-0 0 0001\,2 28082 004.3959 069.2678 0001690 075.4723 284.8617 00.9911290305429,4.3959,0.000169,0.99112903,69.2678,75.4723,284.8617
28082,CHINASAT 20,EGO,18255.18251079,1 28082U 03052A   18255.18251079 -.00000125 +00000-0 +00000-0 0 0001\,2 28082 004.3959 069.2680 0001670 075.6615 284.6724 00.9911283505429,4.3959,0.000167,0.99112835,69.268,75.6615,284.6724
28082,CHINASAT 20,EGO,18256.19137628,1 28082U 03052A   18256.19137628 -.00000147  00000-0  00000+0 0  6145\,2 28082   4.3979  69.2626 0001727  75.1801 285.1354  0.99113379 54317,4.3979,0.0001727,0.99113379,69.2626,75.1801,285.1354
28082,CHINASAT 20,EGO,18256.19137713,1 28082U 03052A   18256.19137713 -.00000147 +00000-0 +00000-0 0 0001\,2 28082 004.3979 069.2629 0001719 075.2475 285.0680 00.9911334205430,4.3979,0.0001719,0.99113342,69.2629,75.2475,285.068
28082,CHINASAT 20,EGO,18257.20023763,1 28082U 03052A   18257.20023763 -.00000169 +00000-0 +00000-0 0 0001\,2 28082 004.3999 069.2569 0001776 075.1924 285.1052 00.9911381305431,4.3999,0.0001776,0.99113813,69.2569,75.1924,285.1052
28082,CHINASAT 20,EGO,18257.20023924,1 28082U 03052A   18257.20023924 -.00000169 +00000-0 +00000-0 0 0001\,2 28082 004.3999 069.2576 0001762 075.1487 285.1488 00.9911374505431,4.3999,0.0001762,0.99113745,69.2576,75.1487,285.1488
28082,CHINASAT 20,EGO,18258.20910555,1 28082U 03052A   18258.20910555 -.00000189 +00000-0 +00000-0 0 0001\,2 28082 004.4019 069.2510 0001824 075.5709 284.7127 00.9911416905432,4.4019,0.0001824,0.99114169,69.251,75.5709,284.7127
28082,CHINASAT 20,EGO,18258.20910576,1 28082U 03052A   18258.20910576 -.00000189 +00000-0 +00000-0 0 0001\,2 28082 004.4018 069.2505 0001850 076.0393 284.2446 00.9911424905432,4.4018,0.000185,0.99114249,69.2505,76.0393,284.2446
28082,CHINASAT 20,EGO,18258.20910707,1 28082U 03052A   18258.20910707 -.00000189  00000-0  00000+0 0  6153\,2 28082   4.4019  69.2517 0001807  75.4977 284.7858  0.99114112 54330,4.4019,0.0001807,0.99114112,69.2517,75.4977,284.7858
28082,CHINASAT 20,EGO,18259.21798744,1 28082U 03052A   18259.21798744 -.00000207 +00000-0 +00000-0 0 0001\,2 28082 004.4038 069.2449 0001863 076.9138 283.3621 00.9911443405433,4.4038,0.0001863,0.99114434,69.2449,76.9138,283.3621
28082,CHINASAT 20,EGO,18260.22688688,1 28082U 03052A   18260.22688688 -.00000222 +00000-0 +00000-0 0 0001\,2 28082 004.4057 069.2388 0001894 078.3652 281.9103 00.9911459705434,4.4057,0.0001894,0.99114597,69.2388,78.3652,281.9103
